[{"OBJECT_NAME":"KUIPER-00014","OBJECT_ID":"2025-088G","EPOCH":"2026-03-09T12:14:38.382144","MEAN_MOTION":14.79898503,"ECCENTRICITY":3.348e-5,"INCLINATION":51.9,"RA_OF_ASC_NODE":109.8608,"ARG_OF_PERICENTER":71.1375,"MEAN_ANOMALY":288.9623,"EPHEMERIS_TYPE":0,"CLASSIFICATION_TYPE":"U","NORAD_CAT_ID":63730,"ELEMENT_SET_NO":999,"REV_AT_EPOCH":4734,"BSTAR":0.0006834098,"MEAN_MOTION_DOT":4.988e-5,"MEAN_MOTION_DDOT":0},{"OBJECT_NAME":"CZ-4B DEB","OBJECT_ID":"1999-057CV","EPOCH":"2026-03-09T19:57:46.813248","MEAN_MOTION":14.85904834,"ECCENTRICITY":0.00580026,"INCLINATION":98.3828,"RA_OF_ASC_NODE":180.8293,"ARG_OF_PERICENTER":13.7764,"MEAN_ANOMALY":105.3903,"EPHEMERIS_TYPE":0,"CLASSIFICATION_TYPE":"U","NORAD_CAT_ID":26207,"ELEMENT_SET_NO":999,"REV_AT_EPOCH":36891,"BSTAR":0.0014962351,"MEAN_MOTION_DOT":0.00013405,"MEAN_MOTION_DDOT":0}]
